0 CZ-3A DEB
1 36970U 07003AG  13280.86599236  .00000189  00000-0  76644-2 0  2874
2 36970 024.7883 129.2225 7555490 110.8533 359.9308 01.76585563 37056
0 CZ-3A DEB
1 36970U 07003AG  13282.00465803  .00000185  00000-0  73864-2 0  2882
2 36970 024.7930 128.9144 7555585 111.3611 003.7915 01.76586845 37077
0 CZ-3A DEB
1 36970U 07003AG  13285.92846688  .00000157  00000-0  73864-2 0  2890
2 36970 024.8034 127.8427 7555187 113.0651 338.2263 01.76588042 37147
0 CZ-3A DEB
1 36970U 07003AG  13285.96714509  .00000083  00000-0  46432-2 0  2901
2 36970 024.8104 127.8446 7555941 113.1250 002.8018 01.76588660 37148
0 CZ-3A DEB
1 36970U 07003AG  13292.75434410  .00000069  00000-0  57221-2 0  2919
2 36970 024.8421 126.0119 7556493 116.1475 357.5914 01.76591693 37261
